{
 "type": "FeatureCollection",
 "features": [
  {
   "type": "Feature",
   "properties": {
    "name": "South Platte River",
    "kind": "river"
   },
   "geometry": {
    "type": "LineString",
    "coordinates": [
     [
      -105.05903,
      39.563
     ],
     [
      -105.05827,
      39.5638
     ],
     [
      -105.0563,
      39.56488
     ],
     [
      -105.05007,
      39.56636
     ],
     [
      -105.04871,
      39.56633
     ],
     [
      -105.04699,
      39.56692
     ],
     [
      -105.04599,
      39.56692
     ],
     [
      -105.04365,
      39.56566
     ],
     [
      -105.042,
      39.56569
     ],
     [
      -105.04049,
      39.56636
     ],
     [
      -105.04002,
      39.56697
     ],
     [
      -105.03917,
      39.56854
     ],
     [
      -105.03919,
      39.56926
     ],
     [
      -105.03931,
      39.56964
     ],
     [
      -105.03965,
      39.57008
     ],
     [
      -105.04015,
      39.57042
     ],
     [
      -105.04053,
      39.57099
     ],
     [
      -105.04067,
      39.57214
     ],
     [
      -105.04001,
      39.57296
     ],
     [
      -105.03889,
      39.574
     ],
     [
      -105.03777,
      39.57443
     ],
     [
      -105.03736,
      39.57483
     ],
     [
      -105.03717,
      39.57535
     ],
     [
      -105.03755,
      39.5757
     ],
     [
      -105.03821,
      39.57604
     ],
     [
      -105.03819,
      39.57635
     ],
     [
      -105.03692,
      39.57672
     ],
     [
      -105.03634,
      39.57745
     ],
     [
      -105.03575,
      39.57783
     ],
     [
      -105.03441,
      39.57823
     ],
     [
      -105.03382,
      39.57861
     ],
     [
      -105.03362,
      39.57898
     ],
     [
      -105.03334,
      39.58032
     ],
     [
      -105.03105,
      39.5821
     ],
     [
      -105.03074,
      39.58262
     ],
     [
      -105.03028,
      39.58365
     ],
     [
      -105.03047,
      39.58461
     ],
     [
      -105.03068,
      39.58498
     ],
     [
      -105.03101,
      39.58516
     ],
     [
      -105.03123,
      39.58557
     ],
     [
      -105.03114,
      39.58633
     ],
     [
      -105.03121,
      39.58741
     ],
     [
      -105.03117,
      39.58783
     ],
     [
      -105.03055,
      39.58922
     ],
     [
      -105.03032,
      39.5907
     ],
     [
      -105.0301,
      39.59131
     ],
     [
      -105.02989,
      39.59153
     ],
     [
      -105.02961,
      39.59167
     ],
     [
      -105.02795,
      39.59172
     ],
     [
      -105.02768,
      39.59205
     ],
     [
      -105.02796,
      39.59248
     ],
     [
      -105.02878,
      39.59312
     ],
     [
      -105.02907,
      39.59352
     ],
     [
      -105.02912,
      39.59423
     ],
     [
      -105.02894,
      39.59518
     ],
     [
      -105.02835,
      39.59618
     ],
     [
      -105.02787,
      39.59653
     ],
     [
      -105.02605,
      39.59701
     ],
     [
      -105.02539,
      39.59747
     ],
     [
      -105.02487,
      39.59822
     ],
     [
      -105.02462,
      39.59889
     ],
     [
      -105.02453,
      39.60018
     ],
     [
      -105.02472,
      39.60213
     ],
     [
      -105.02453,
      39.60461
     ],
     [
      -105.02383,
      39.60688
     ],
     [
      -105.0235,
      39.60905
     ],
     [
      -105.02356,
      39.60966
     ],
     [
      -105.02385,
      39.61018
     ],
     [
      -105.02519,
      39.61158
     ],
     [
      -105.02536,
      39.612
     ],
     [
      -105.02532,
      39.61297
     ],
     [
      -105.02466,
      39.61391
     ],
     [
      -105.02347,
      39.61457
     ],
     [
      -105.02157,
      39.61532
     ],
     [
      -105.02084,
      39.61574
     ],
     [
      -105.02023,
      39.61637
     ],
     [
      -105.01892,
      39.61868
     ],
     [
      -105.01707,
      39.62118
     ],
     [
      -105.01688,
      39.62226
     ],
     [
      -105.01767,
      39.62351
     ],
     [
      -105.01874,
      39.62464
     ],
     [
      -105.01913,
      39.62546
     ],
     [
      -105.01911,
      39.62586
     ],
     [
      -105.01864,
      39.62642
     ],
     [
      -105.01661,
      39.62751
     ],
     [
      -105.01583,
      39.62816
     ],
     [
      -105.0152,
      39.62916
     ],
     [
      -105.01486,
      39.63041
     ],
     [
      -105.0147,
      39.63216
     ],
     [
      -105.01487,
      39.6325
     ],
     [
      -105.01562,
      39.63308
     ],
     [
      -105.01663,
      39.63331
     ],
     [
      -105.01735,
      39.63362
     ],
     [
      -105.01781,
      39.63405
     ],
     [
      -105.01808,
      39.6345
     ],
     [
      -105.01807,
      39.63513
     ],
     [
      -105.01782,
      39.63593
     ],
     [
      -105.01574,
      39.63801
     ],
     [
      -105.01519,
      39.64162
     ],
     [
      -105.01517,
      39.64364
     ],
     [
      -105.015,
      39.64483
     ],
     [
      -105.01418,
      39.64794
     ],
     [
      -105.01342,
      39.64975
     ],
     [
      -105.01211,
      39.65038
     ],
     [
      -105.00853,
      39.65121
     ],
     [
      -105.00777,
      39.65159
     ],
     [
      -105.00739,
      39.65212
     ],
     [
      -105.00648,
      39.653
     ],
     [
      -105.00596,
      39.65516
     ],
     [
      -105.00542,
      39.6563
     ],
     [
      -105.00309,
      39.65811
     ],
     [
      -105.00278,
      39.65862
     ],
     [
      -105.00277,
      39.65908
     ],
     [
      -105.00299,
      39.65954
     ],
     [
      -105.00401,
      39.6607
     ],
     [
      -105.00441,
      39.66185
     ],
     [
      -105.00427,
      39.66307
     ],
     [
      -105.0045,
      39.66573
     ],
     [
      -105.0042,
      39.66682
     ],
     [
      -105.00379,
      39.66713
     ],
     [
      -105.00311,
      39.66728
     ],
     [
      -105.00222,
      39.66772
     ],
     [
      -105.00123,
      39.66805
     ],
     [
      -105.00055,
      39.66801
     ],
     [
      -104.99949,
      39.66854
     ],
     [
      -104.99889,
      39.66911
     ],
     [
      -104.99739,
      39.67293
     ],
     [
      -104.99741,
      39.6738
     ],
     [
      -104.99813,
      39.67909
     ],
     [
      -104.99901,
      39.68051
     ],
     [
      -105.00055,
      39.68118
     ],
     [
      -105.00115,
      39.68188
     ],
     [
      -105.00147,
      39.68268
     ],
     [
      -105.00144,
      39.68342
     ],
     [
      -104.99963,
      39.68937
     ],
     [
      -104.99923,
      39.68993
     ],
     [
      -104.99873,
      39.69031
     ],
     [
      -104.99576,
      39.6916
     ],
     [
      -104.99428,
      39.6925
     ],
     [
      -104.99354,
      39.6935
     ],
     [
      -104.99306,
      39.6947
     ],
     [
      -104.99225,
      39.69765
     ],
     [
      -104.99221,
      39.6985
     ],
     [
      -104.99253,
      39.69957
     ],
     [
      -104.99369,
      39.70111
     ],
     [
      -104.99582,
      39.7035
     ],
     [
      -104.997,
      39.7046
     ],
     [
      -104.99762,
      39.70545
     ],
     [
      -104.99945,
      39.70976
     ],
     [
      -105.00199,
      39.71504
     ],
     [
      -105.00287,
      39.71606
     ],
     [
      -105.00346,
      39.71659
     ],
     [
      -105.00486,
      39.71739
     ],
     [
      -105.00656,
      39.71864
     ],
     [
      -105.00976,
      39.72159
     ],
     [
      -105.01303,
      39.72267
     ],
     [
      -105.01449,
      39.72346
     ],
     [
      -105.01569,
      39.72441
     ],
     [
      -105.01584,
      39.72524
     ],
     [
      -105.01579,
      39.72704
     ],
     [
      -105.01595,
      39.72804
     ],
     [
      -105.01686,
      39.72937
     ],
     [
      -105.017,
      39.72986
     ],
     [
      -105.01705,
      39.73518
     ],
     [
      -105.01734,
      39.73624
     ],
     [
      -105.01808,
      39.73794
     ],
     [
      -105.01812,
      39.73878
     ],
     [
      -105.01583,
      39.74476
     ],
     [
      -105.01537,
      39.74934
     ],
     [
      -105.01487,
      39.74999
     ],
     [
      -105.01289,
      39.75131
     ],
     [
      -105.00836,
      39.75473
     ],
     [
      -105.00723,
      39.75585
     ],
     [
      -105.00521,
      39.75842
     ],
     [
      -105.00349,
      39.76032
     ],
     [
      -105.00198,
      39.76101
     ],
     [
      -105.00051,
      39.76121
     ],
     [
      -104.99755,
      39.76248
     ],
     [
      -104.99651,
      39.76257
     ],
     [
      -104.99563,
      39.76291
     ],
     [
      -104.99319,
      39.76487
     ],
     [
      -104.99183,
      39.76562
     ],
     [
      -104.98823,
      39.76638
     ],
     [
      -104.98472,
      39.76746
     ],
     [
      -104.98388,
      39.76832
     ],
     [
      -104.98271,
      39.77009
     ],
     [
      -104.98135,
      39.77157
     ],
     [
      -104.97864,
      39.77495
     ],
     [
      -104.97784,
      39.77654
     ],
     [
      -104.97804,
      39.77849
     ],
     [
      -104.97795,
      39.77934
     ],
     [
      -104.97738,
      39.78046
     ],
     [
      -104.97633,
      39.78175
     ],
     [
      -104.97556,
      39.78335
     ],
     [
      -104.97542,
      39.78388
     ],
     [
      -104.97539,
      39.78562
     ],
     [
      -104.9752,
      39.78639
     ],
     [
      -104.97451,
      39.78706
     ],
     [
      -104.97282,
      39.78813
     ],
     [
      -104.9695,
      39.79066
     ],
     [
      -104.96841,
      39.79127
     ],
     [
      -104.96773,
      39.79151
     ],
     [
      -104.9676,
      39.79174
     ],
     [
      -104.96765,
      39.79202
     ],
     [
      -104.96704,
      39.79321
     ],
     [
      -104.96573,
      39.79525
     ],
     [
      -104.96254,
      39.79768
     ],
     [
      -104.9624,
      39.79799
     ],
     [
      -104.96023,
      39.80002
     ],
     [
      -104.95982,
      39.801
     ],
     [
      -104.95945,
      39.80153
     ],
     [
      -104.95742,
      39.80334
     ],
     [
      -104.95725,
      39.80388
     ],
     [
      -104.95747,
      39.80504
     ],
     [
      -104.95946,
      39.8084
     ],
     [
      -104.95949,
      39.80999
     ],
     [
      -104.95887,
      39.81192
     ],
     [
      -104.95824,
      39.81244
     ],
     [
      -104.9576,
      39.81266
     ],
     [
      -104.95462,
      39.81291
     ],
     [
      -104.95212,
      39.81339
     ],
     [
      -104.95136,
      39.81456
     ],
     [
      -104.9513,
      39.81609
     ],
     [
      -104.94977,
      39.81752
     ],
     [
      -104.94973,
      39.81826
     ],
     [
      -104.95049,
      39.81901
     ],
     [
      -104.95064,
      39.81935
     ],
     [
      -104.95066,
      39.81999
     ],
     [
      -104.95048,
      39.8209
     ],
     [
      -104.9493,
      39.82192
     ],
     [
      -104.94902,
      39.82226
     ],
     [
      -104.94886,
      39.82271
     ],
     [
      -104.94886,
      39.82342
     ],
     [
      -104.94962,
      39.82424
     ],
     [
      -104.94972,
      39.82509
     ],
     [
      -104.94885,
      39.82585
     ],
     [
      -104.94878,
      39.8271
     ],
     [
      -104.94847,
      39.82872
     ],
     [
      -104.94863,
      39.82897
     ],
     [
      -104.94854,
      39.82978
     ],
     [
      -104.94818,
      39.83064
     ],
     [
      -104.9479,
      39.83277
     ],
     [
      -104.94832,
      39.83554
     ],
     [
      -104.9485,
      39.83595
     ],
     [
      -104.94944,
      39.837
     ]
    ]
   }
  },
  {
   "type": "Feature",
   "properties": {
    "name": "Cherry Creek",
    "kind": "creek"
   },
   "geometry": {
    "type": "LineString",
    "coordinates": [
     [
      -104.893,
      39.67258
     ],
     [
      -104.89373,
      39.67413
     ],
     [
      -104.89385,
      39.67521
     ],
     [
      -104.89378,
      39.67559
     ],
     [
      -104.89398,
      39.67657
     ],
     [
      -104.8943,
      39.67766
     ],
     [
      -104.89467,
      39.67833
     ],
     [
      -104.8962,
      39.68036
     ],
     [
      -104.89728,
      39.68075
     ],
     [
      -104.89833,
      39.68168
     ],
     [
      -104.89893,
      39.68278
     ],
     [
      -104.89972,
      39.68324
     ],
     [
      -104.90093,
      39.68367
     ],
     [
      -104.90147,
      39.68429
     ],
     [
      -104.90246,
      39.68478
     ],
     [
      -104.90396,
      39.68586
     ],
     [
      -104.90482,
      39.6862
     ],
     [
      -104.90607,
      39.68712
     ],
     [
      -104.90723,
      39.68776
     ],
     [
      -104.9085,
      39.68828
     ],
     [
      -104.90985,
      39.68924
     ],
     [
      -104.91038,
      39.68941
     ],
     [
      -104.91083,
      39.68989
     ],
     [
      -104.91188,
      39.69052
     ],
     [
      -104.91313,
      39.69107
     ],
     [
      -104.91637,
      39.69295
     ],
     [
      -104.91693,
      39.69348
     ],
     [
      -104.92324,
      39.69684
     ],
     [
      -104.92494,
      39.69815
     ],
     [
      -104.92686,
      39.70008
     ],
     [
      -104.92773,
      39.70161
     ],
     [
      -104.92946,
      39.70287
     ],
     [
      -104.93041,
      39.70336
     ],
     [
      -104.9324,
      39.70398
     ],
     [
      -104.9334,
      39.70454
     ],
     [
      -104.93645,
      39.70581
     ],
     [
      -104.93725,
      39.70585
     ],
     [
      -104.93837,
      39.70643
     ],
     [
      -104.93945,
      39.70629
     ],
     [
      -104.9411,
      39.70641
     ],
     [
      -104.94184,
      39.70664
     ],
     [
      -104.94334,
      39.70768
     ],
     [
      -104.9438,
      39.70824
     ],
     [
      -104.9446,
      39.70862
     ],
     [
      -104.94503,
      39.70922
     ],
     [
      -104.9464,
      39.71015
     ],
     [
      -104.94746,
      39.71124
     ],
     [
      -104.9489,
      39.71212
     ],
     [
      -104.94937,
      39.71273
     ],
     [
      -104.95092,
      39.71377
     ],
     [
      -104.95136,
      39.71426
     ],
     [
      -104.95352,
      39.71523
     ],
     [
      -104.95549,
      39.71568
     ],
     [
      -104.95761,
      39.71579
     ],
     [
      -104.95959,
      39.71563
     ],
     [
      -104.96229,
      39.71522
     ],
     [
      -104.96484,
      39.7142
     ],
     [
      -104.96573,
      39.7141
     ],
     [
      -104.96755,
      39.7152
     ],
     [
      -104.97021,
      39.71753
     ],
     [
      -104.97142,
      39.71802
     ],
     [
      -104.97673,
      39.71936
     ],
     [
      -104.98281,
      39.72304
     ],
     [
      -104.98393,
      39.72397
     ],
     [
      -104.98624,
      39.72624
     ],
     [
      -104.98909,
      39.72788
     ],
     [
      -104.99009,
      39.7288
     ],
     [
      -104.99342,
      39.73309
     ],
     [
      -104.99796,
      39.73927
     ],
     [
      -104.99911,
      39.74104
     ],
     [
      -105.00029,
      39.74369
     ],
     [
      -105.00056,
      39.74683
     ],
     [
      -105.00152,
      39.74858
     ],
     [
      -105.004,
      39.75062
     ],
     [
      -105.00773,
      39.75339
     ],
     [
      -105.00803,
      39.75389
     ],
     [
      -105.00815,
      39.75451
     ],
     [
      -105.00836,
      39.75473
     ]
    ]
   }
  },
  {
   "type": "Feature",
   "properties": {
    "id": "grant-frontier-park",
    "order": 1,
    "name_en": "Grant Frontier Park",
    "name_es": "Grant Frontier Park",
    "pendant": false,
    "approx": false
   },
   "geometry": {
    "type": "Point",
    "coordinates": [
     -104.99697,
     39.67399
    ]
   }
  },
  {
   "type": "Feature",
   "properties": {
    "id": "pasquinel-s-landing",
    "order": 2,
    "name_en": "Pasquinel's Landing",
    "name_es": "Pasquinel's Landing",
    "pendant": false,
    "approx": false
   },
   "geometry": {
    "type": "Point",
    "coordinates": [
     -104.99775,
     39.67959
    ]
   }
  },
  {
   "type": "Feature",
   "properties": {
    "id": "ruby-hill-park",
    "order": 3,
    "name_en": "Ruby Hill Park",
    "name_es": "Ruby Hill Park",
    "pendant": false,
    "approx": false
   },
   "geometry": {
    "type": "Point",
    "coordinates": [
     -105.0039,
     39.68601
    ]
   }
  },
  {
   "type": "Feature",
   "properties": {
    "id": "overland-pond-park",
    "order": 4,
    "name_en": "Overland Pond Park",
    "name_es": "Overland Pond Park",
    "pendant": false,
    "approx": false
   },
   "geometry": {
    "type": "Point",
    "coordinates": [
     -104.9977,
     39.68985
    ]
   }
  },
  {
   "type": "Feature",
   "properties": {
    "id": "vanderbilt-park",
    "order": 5,
    "name_en": "Vanderbilt Park",
    "name_es": "Vanderbilt Park",
    "pendant": false,
    "approx": false
   },
   "geometry": {
    "type": "Point",
    "coordinates": [
     -104.99553,
     39.70049
    ]
   }
  },
  {
   "type": "Feature",
   "properties": {
    "id": "johnson-habitat-park",
    "order": 6,
    "name_en": "Johnson-Habitat Park",
    "name_es": "Johnson-Habitat Park",
    "pendant": false,
    "approx": false
   },
   "geometry": {
    "type": "Point",
    "coordinates": [
     -104.99828,
     39.70568
    ]
   }
  },
  {
   "type": "Feature",
   "properties": {
    "id": "valverde-park",
    "order": 7,
    "name_en": "Valverde Park",
    "name_es": "Valverde Park",
    "pendant": false,
    "approx": false
   },
   "geometry": {
    "type": "Point",
    "coordinates": [
     -105.00282,
     39.71376
    ]
   }
  },
  {
   "type": "Feature",
   "properties": {
    "id": "phil-milstein-park",
    "order": 8,
    "name_en": "Phil Milstein Park",
    "name_es": "Phil Milstein Park",
    "pendant": false,
    "approx": false
   },
   "geometry": {
    "type": "Point",
    "coordinates": [
     -105.01314,
     39.72329
    ]
   }
  },
  {
   "type": "Feature",
   "properties": {
    "id": "frog-hollow-park",
    "order": 9,
    "name_en": "Frog Hollow Park",
    "name_es": "Frog Hollow Park",
    "pendant": false,
    "approx": false
   },
   "geometry": {
    "type": "Point",
    "coordinates": [
     -105.01543,
     39.7279
    ]
   }
  },
  {
   "type": "Feature",
   "properties": {
    "id": "weir-gulch-marina-park",
    "order": 10,
    "name_en": "Weir Gulch Marina Park",
    "name_es": "Weir Gulch Marina Park",
    "pendant": false,
    "approx": false
   },
   "geometry": {
    "type": "Point",
    "coordinates": [
     -105.01651,
     39.73085
    ]
   }
  },
  {
   "type": "Feature",
   "properties": {
    "id": "sun-valley-riverfront-park",
    "order": 11,
    "name_en": "Sun Valley Riverfront Park",
    "name_es": "Sun Valley Riverfront Park",
    "pendant": true,
    "approx": true
   },
   "geometry": {
    "type": "Point",
    "coordinates": [
     -105.01683,
     39.7362
    ]
   }
  },
  {
   "type": "Feature",
   "properties": {
    "id": "lower-lakewood-gulch",
    "order": 12,
    "name_en": "Lower Lakewood Gulch",
    "name_es": "Lower Lakewood Gulch",
    "pendant": false,
    "approx": false
   },
   "geometry": {
    "type": "Point",
    "coordinates": [
     -105.01761,
     39.73861
    ]
   }
  },
  {
   "type": "Feature",
   "properties": {
    "id": "gates-crescent-park",
    "order": 13,
    "name_en": "Gates Crescent Park",
    "name_es": "Gates Crescent Park",
    "pendant": false,
    "approx": false
   },
   "geometry": {
    "type": "Point",
    "coordinates": [
     -105.01666,
     39.74721
    ]
   }
  },
  {
   "type": "Feature",
   "properties": {
    "id": "centennial-gardens",
    "order": 14,
    "name_en": "Centennial Gardens",
    "name_es": "Centennial Gardens",
    "pendant": false,
    "approx": false
   },
   "geometry": {
    "type": "Point",
    "coordinates": [
     -105.00992,
     39.75258
    ]
   }
  },
  {
   "type": "Feature",
   "properties": {
    "id": "finback",
    "order": 15,
    "name_en": "Finback",
    "name_es": "Finback",
    "pendant": false,
    "approx": true
   },
   "geometry": {
    "type": "Point",
    "coordinates": [
     -105.0092,
     39.7534
    ]
   }
  },
  {
   "type": "Feature",
   "properties": {
    "id": "confluence-park",
    "order": 16,
    "name_en": "Confluence Park",
    "name_es": "Confluence Park",
    "pendant": false,
    "approx": false
   },
   "geometry": {
    "type": "Point",
    "coordinates": [
     -105.00851,
     39.75422
    ]
   }
  },
  {
   "type": "Feature",
   "properties": {
    "id": "commons-park",
    "order": 17,
    "name_en": "Commons Park",
    "name_es": "Commons Park",
    "pendant": false,
    "approx": false
   },
   "geometry": {
    "type": "Point",
    "coordinates": [
     -105.00525,
     39.75672
    ]
   }
  },
  {
   "type": "Feature",
   "properties": {
    "id": "city-of-cuernavaca-park",
    "order": 18,
    "name_en": "City of Cuernavaca Park",
    "name_es": "City of Cuernavaca Park",
    "pendant": false,
    "approx": false
   },
   "geometry": {
    "type": "Point",
    "coordinates": [
     -105.00039,
     39.76263
    ]
   }
  },
  {
   "type": "Feature",
   "properties": {
    "id": "arkins-park",
    "order": 19,
    "name_en": "Arkins Park",
    "name_es": "Arkins Park",
    "pendant": false,
    "approx": false
   },
   "geometry": {
    "type": "Point",
    "coordinates": [
     -104.98086,
     39.77074
    ]
   }
  },
  {
   "type": "Feature",
   "properties": {
    "id": "globeville-landing-park",
    "order": 20,
    "name_en": "Globeville Landing Park",
    "name_es": "Globeville Landing Park",
    "pendant": false,
    "approx": false
   },
   "geometry": {
    "type": "Point",
    "coordinates": [
     -104.9766,
     39.77714
    ]
   }
  },
  {
   "type": "Feature",
   "properties": {
    "id": "national-western",
    "order": 21,
    "name_en": "National Western",
    "name_es": "National Western",
    "pendant": false,
    "approx": true
   },
   "geometry": {
    "type": "Point",
    "coordinates": [
     -104.9745,
     39.7838
    ]
   }
  },
  {
   "type": "Feature",
   "properties": {
    "id": "carpio-sanguinette-park",
    "order": 22,
    "name_en": "Carpio-Sanguinette Park",
    "name_es": "Carpio-Sanguinette Park",
    "pendant": false,
    "approx": false
   },
   "geometry": {
    "type": "Point",
    "coordinates": [
     -104.97237,
     39.7904
    ]
   }
  },
  {
   "type": "Feature",
   "properties": {
    "id": "heron-pond",
    "order": 23,
    "name_en": "Heron Pond",
    "name_es": "Heron Pond",
    "pendant": false,
    "approx": false
   },
   "geometry": {
    "type": "Point",
    "coordinates": [
     -104.97428,
     39.79409
    ]
   }
  }
 ]
}
